[{"OBJECT_NAME":"STARLINK-32161","OBJECT_ID":"2024-150L","EPOCH":"2026-03-09T21:20:46.272480","MEAN_MOTION":15.30186437,"ECCENTRICITY":8.838e-5,"INCLINATION":53.1597,"RA_OF_ASC_NODE":305.9754,"ARG_OF_PERICENTER":91.833,"MEAN_ANOMALY":268.2772,"EPHEMERIS_TYPE":0,"CLASSIFICATION_TYPE":"U","NORAD_CAT_ID":60593,"ELEMENT_SET_NO":999,"REV_AT_EPOCH":8799,"BSTAR":5.8366414e-5,"MEAN_MOTION_DOT":1.369e-5,"MEAN_MOTION_DDOT":0},{"OBJECT_NAME":"CZ-4C DEB","OBJECT_ID":"2007-055C","EPOCH":"2026-03-09T22:46:15.652128","MEAN_MOTION":15.30523578,"ECCENTRICITY":0.00469709,"INCLINATION":97.8668,"RA_OF_ASC_NODE":247.2248,"ARG_OF_PERICENTER":277.363,"MEAN_ANOMALY":82.2273,"EPHEMERIS_TYPE":0,"CLASSIFICATION_TYPE":"U","NORAD_CAT_ID":35248,"ELEMENT_SET_NO":999,"REV_AT_EPOCH":97353,"BSTAR":0.0018809895,"MEAN_MOTION_DOT":0.000577,"MEAN_MOTION_DDOT":0}]
